1 45161U 20008AG  23100.36928227  .00000629  00000-0  17668-2 0  9999
2 45161  87.8761 267.5025 0001702 103.0904 257.0413 13.10374419156007
1 45161U 20008AG  23100.75106918  .00000603  00000-0  16898-2 0  9993
2 45161  87.8762 267.4262 0001709 103.1934 256.9384 13.10374597156058
1 45161U 20008AG  23101.51464270  .00000487  00000-0  13574-2 0  9994
2 45161  87.8765 267.2738 0001732 103.2567 256.8754 13.10374811156156
1 45161U 20008AG  23101.74371387  .00000531  00000-0  14858-2 0  9991
2 45161  87.8765 267.2280 0001739 103.3191 256.8131 13.10375621156181
1 45161U 20008AG  23101.97278596  .00000378  00000-0  10474-2 0  9993
2 45161  87.8766 267.1823 0001730 103.3631 256.7689 13.10375679156960
1 45161U 20008AG  23102.50728649  .00000323  00000-0  88950-3 0  9997
2 45161  87.8767 267.0755 0001759 103.3545 256.7778 13.10375972156289
1 45161U 20008AG  23103.42357320  .00000093  00000-0  23037-3 0  9992
2 45161  87.8769 266.8926 0001776 103.3018 256.8308 13.10376137156400
1 45161U 20008AG  23103.72900077  .00000190  00000-0  50665-3 0  9993
2 45161  87.8769 266.8316 0001780 103.4725 256.6601 13.10377058157198
1 45161U 20008AG  23104.49257334 -.00000078  00000-0 -25901-3 0  9991
2 45161  87.8771 266.6792 0001754 103.6981 256.4342 13.10376275156542
1 45161U 20008AG  23105.17978784 -.00000239  00000-0 -72215-3 0  9995
2 45161  87.8773 266.5420 0001748 103.8173 256.3149 13.10376396157380
1 45161U 20008AG  23105.48521708 -.00000294  00000-0 -87950-3 0  9992
2 45161  87.8773 266.4810 0001759 103.8965 256.2358 13.10375779156679
1 45161U 20008AG  23105.86700301 -.00000422  00000-0 -12459-2 0  9996
2 45161  87.8772 266.4048 0001757 104.2239 255.9084 13.10375986156726
1 45161U 20008AG  23106.47786108 -.00000445  00000-0 -13112-2 0  9995
2 45161  87.8772 266.2829 0001776 104.1457 255.9868 13.10375305156807
1 45161U 20008AG  23106.85964741 -.00000497  00000-0 -14604-2 0  9992
2 45161  87.8773 266.2067 0001785 104.3037 255.8288 13.10375167156854
1 45161U 20008AG  23107.47050579 -.00000481  00000-0 -14130-2 0  9993
2 45161  87.8773 266.0849 0001803 104.2884 255.8443 13.10374749156937
1 45161U 20008AG  23107.85229315 -.00000612  00000-0 -17897-2 0  9990
2 45161  87.8774 266.0088 0001808 104.4633 255.6695 13.10374124157735
1 45161U 20008AG  23108.38679477 -.00000608  00000-0 -17792-2 0  9996
2 45161  87.8773 265.9021 0001819 104.2714 255.8615 13.10374033157057
1 45161U 20008AG  23108.69222458 -.00000567  00000-0 -16596-2 0  9998
2 45161  87.8774 265.8412 0001830 104.2969 255.8362 13.10373568157091
1 45161U 20008AG  23109.37944207 -.00000526  00000-0 -15439-2 0  9997
2 45161  87.8772 265.7038 0001807 104.6199 255.5129 13.10372931157186
1 45161U 20008AG  23109.68487210 -.00000529  00000-0 -15506-2 0  9995
2 45161  87.8773 265.6429 0001818 104.5492 255.5837 13.10372938157225
1 45161U 20008AG  23110.37209089 -.00000470  00000-0 -13842-2 0  9995
2 45161  87.8772 265.5056 0001829 104.8682 255.2648 13.10371932157315
1 45161U 20008AG  23110.67752150 -.00000414  00000-0 -12216-2 0  9992
2 45161  87.8774 265.4447 0001841 104.8691 255.2640 13.10371626157350
1 45161U 20008AG  23111.13566722 -.00000359  00000-0 -10650-2 0  9990
2 45161  87.8774 265.3533 0001839 105.1348 254.9983 13.10371909157412
1 45161U 20008AG  23111.44109881 -.00000386  00000-0 -11411-2 0  9999
2 45161  87.8774 265.2923 0001845 104.9537 255.1795 13.10370857157457
1 45161U 20008AG  23112.12831792 -.00000169  00000-0 -52128-3 0  9998
2 45161  87.8775 265.1552 0001860 104.9776 255.1558 13.10371041157540
1 45161U 20008AG  23112.12831792 -.00000169  00000-0 -52128-3 0  9998
2 45161  87.8775 265.1552 0001860 104.9776 255.1558 13.10371041158293
1 45161U 20008AG  23112.66282224 -.00000073  00000-0 -24608-3 0  9993
2 45161  87.8775 265.0485 0001860 104.7075 255.4259 13.10370695157617
1 45161U 20008AG  23113.42640003  .00000084  00000-0  20440-3 0  9991
2 45161  87.8775 264.8961 0001846 104.1591 255.9741 13.10370562157719
1 45161U 20008AG  23113.42640003  .00000084  00000-0  20440-3 0  9991
2 45161  87.8775 264.8961 0001846 104.1591 255.9741 13.10370562158462
1 45161U 20008AG  23114.34269257  .00000323  00000-0  88843-3 0  9998
2 45161  87.8778 264.7132 0001851 104.0077 256.1256 13.10371278157837
1 45161U 20008AG  23115.41170072  .00000446  00000-0  12408-2 0  9992
2 45161  87.8781 264.4999 0001901 103.7234 256.4105 13.10371856157979
1 45161U 20008AG  23116.48070693  .00000653  00000-0  18345-2 0  9994
2 45161  87.8786 264.2867 0001944 104.3924 255.7420 13.10373212158865
1 45161U 20008AG  23116.63342206  .00000662  00000-0  18594-2 0  9999
2 45161  87.8786 264.2562 0001945 104.3013 255.8331 13.10373328158137
1 45161U 20008AG  23117.47335517  .00000710  00000-0  19971-2 0  9993
2 45161  87.8789 264.0886 0001986 104.2386 255.8962 13.10373641158244
1 45161U 20008AG  23117.85514260  .00000694  00000-0  19512-2 0  9991
2 45161  87.8790 264.0126 0001957 103.5530 256.5815 13.10374005159043
1 45161U 20008AG  23118.46600159  .00000661  00000-0  18567-2 0  9995
2 45161  87.8791 263.8907 0001952 103.5197 256.6148 13.10374876158373
1 45161U 20008AG  23118.92414544  .00000639  00000-0  17937-2 0  9992
2 45161  87.8792 263.7992 0001960 103.9974 256.1371 13.10375448159182
1 45161U 20008AG  23119.45864631  .00000610  00000-0  17101-2 0  9999
2 45161  87.8794 263.6926 0001967 103.7602 256.3744 13.10376019158509
1 45161U 20008AG  23120.45129028  .00000413  00000-0  11456-2 0  9993
2 45161  87.8796 263.4946 0001965 103.2439 256.8908 13.10376780158638
1 45161U 20008AG  23120.45129028  .00000413  00000-0  11456-2 0  9993
2 45161  87.8796 263.4946 0001965 103.2439 256.8908 13.10376780159381
1 45161U 20008AG  23121.44393276  .00000255  00000-0  69406-3 0  9994
2 45161  87.8798 263.2966 0001970 102.2180 257.9168 13.10377654158763
1 45161U 20008AG  23121.74937263 -.00001421  00000-0 -41092-2 0  9995
2 45161  87.8775 263.2320 0001174  83.0215 277.1046 13.10369420159552
1 45161U 20008AG  23121.90211389 -.00003618  00000-0 -10410-1 0  9996
2 45161  87.8801 263.2048 0001915  89.1271 271.0076 13.10347012158829
1 45161U 20008AG  23121.90211389 -.00003618  00000-0 -10410-1 0  9996
2 45161  87.8801 263.2048 0001915  89.1271 271.0076 13.10347012159572
1 45161U 20008AG  23122.43661281  .00001653  00000-0  47012-2 0  9999
2 45161  87.8812 263.0938 0001291  70.9515 289.1752 13.10336626158890
1 45161U 20008AG  23122.43661281  .00001653  00000-0  47012-2 0  9999
2 45161  87.8812 263.0938 0001291  70.9515 289.1752 13.10336626159644
1 45161U 20008AG  23122.66566755 -.00000208  00000-0 -63293-3 0  9991
2 45161  87.8802 263.0532 0002501 102.4070 257.7338 13.10371665159671
1 45161U 20008AG  23122.89474473 -.00000644  00000-0 -18822-2 0  9992
2 45161  87.8805 263.0071 0002329 102.6294 257.5094 13.10368132158952
1 45161U 20008AG  23123.42924152  .00000528  00000-0  14754-2 0  9995
2 45161  87.8807 262.9006 0002034 100.2626 259.8730 13.10370936159022
1 45161U 20008AG  23123.81103323  .00000080  00000-0  19274-3 0  9993
2 45161  87.8810 262.8246 0002080 102.0024 258.1337 13.10367665159822
1 45161U 20008AG  23123.88739508  .00002653  00000-0  75645-2 0  9991
2 45161  87.8809 262.8094 0002148 101.5485 258.5884 13.10354878159082
1 45161U 20008AG  23123.88739508  .00002653  00000-0  75645-2 0  9991
2 45161  87.8809 262.8094 0002148 101.5485 258.5884 13.10354878159835
1 45161U 20008AG  23124.34553852  .00000803  00000-0  22634-2 0  9994
2 45161  87.8810 262.7181 0002098 103.0523 257.0839 13.10367569159898
1 45161U 20008AG  23124.42189543 -.00000435  00000-0 -12834-2 0  9999
2 45161  87.8802 262.7033 0001984 103.8540 256.2808 13.10373188159155
1 45161U 20008AG  23125.41454135 -.00000515  00000-0 -15110-2 0  9990
2 45161  87.8803 262.5054 0001999 103.8575 256.2774 13.10372772160030
1 45161U 20008AG  23125.87268644 -.00000622  00000-0 -18188-2 0  9995
2 45161  87.8803 262.4141 0002002 103.8760 256.2590 13.10372232159347
1 45161U 20008AG  23126.33083103 -.00000551  00000-0 -16151-2 0  9991
2 45161  87.8804 262.3226 0002006 104.0023 256.1327 13.10372096159402
1 45161U 20008AG  23126.94169189 -.00000623  00000-0 -18218-2 0  9993
2 45161  87.8805 262.2009 0002004 104.1711 255.9639 13.10371074160235
1 45161U 20008AG  23128.25001157  .00045666  00000-0  13019+0 0  9994
2 45161  87.8809 261.9404 0002039 105.5368 302.8862 13.10345463160407
1 45161U 20008AG  23128.85063398 -.00000491  00000-0 -14442-2 0  9998
2 45161  87.8803 261.8207 0002033 103.9223 256.2131 13.10369596160489
1 45161U 20008AG  23128.92699188 -.00000498  00000-0 -14637-2 0  9991
2 45161  87.8803 261.8055 0002031 103.8362 256.2991 13.10369389159742
1 45161U 20008AG  23129.38513898 -.00000471  00000-0 -13854-2 0  9996
2 45161  87.8805 261.7142 0002027 103.5782 256.5572 13.10368858159803
1 45161U 20008AG  23130.37778481  .00000129  00000-0  33310-3 0  9996
2 45161  87.8806 261.5165 0002076 102.8726 257.2634 13.10372791159933
1 45161U 20008AG  23130.75957340  .00000212  00000-0  57190-3 0  9996
2 45161  87.8806 261.4403 0002106 102.8545 257.2818 13.10372197159989
1 45161U 20008AG  23131.37043345  .00000369  00000-0  10209-2 0  9998
2 45161  87.8807 261.3184 0002115 102.1200 258.0165 13.10373515160066
1 45161U 20008AG  23131.37043345  .00000369  00000-0  10209-2 0  9998
2 45161  87.8807 261.3184 0002115 102.1200 258.0165 13.10373515160819
1 45161U 20008AG  23131.75222189  .00000098  00000-0  24351-3 0  9998
2 45161  87.8808 261.2426 0002101 102.8601 257.2761 13.10374043160118
1 45161U 20008AG  23131.82857943  .00000076  00000-0  18085-3 0  9991
2 45161  87.8808 261.2273 0002100 102.6794 257.4568 13.10374212160124
1 45161U 20008AG  23132.74486982  .00000206  00000-0  55412-3 0  9994
2 45161  87.8810 261.0445 0002108 101.8115 258.3249 13.10374604160998
1 45161U 20008AG  23132.82122705  .00000255  00000-0  69387-3 0  9993
2 45161  87.8810 261.0293 0002110 101.9278 258.2086 13.10374879160254
1 45161U 20008AG  23133.35572938  .00000330  00000-0  90937-3 0  9998
2 45161  87.8812 260.9228 0002119 101.5977 258.5388 13.10375407160327
